satname,norad_id,inclination_deg,eccentricity,mean_motion_rev_per_day,perigee_km,apogee_km,l1,l2
STARLINK-1360,45588,53.041,0.0003684,15.8466234,314.809083907101,319.7422639652568,1 45588U 20025BK  25335.91667823  .00158786  00000+0  66391-3 0  9991,2 45588  53.0410  43.1348 0003684 353.3232 108.4191 15.84662340  5884
STARLINK-1364,45589,53.0551,0.0001586,15.06401826,546.1076021232275,548.3043209106199,1 45589U 20025BL  25335.82759428  .00000919  00000+0  80560-4 0  9994,2 45589  53.0551 155.9419 0001586  91.8021 268.3150 15.06401826310751
STARLINK-1365,45590,53.0534,0.0001739,15.06397851,546.0138250619966,548.4224635811925,1 45590U 20025BM  25335.84326360  .00000143  00000+0  28493-4 0  9999,2 45590  53.0534 185.8663 0001739  93.9446 266.1741 15.06397851310351
STARLINK-1443,45660,53.0517,0.0001568,15.06412305,546.0879564017168,548.2597338827536,1 45660U 20035D   25335.76216679  .00001587  00000+0  12540-3 0  9998,2 45660  53.0517 146.2338 0001568  89.0637 271.0532 15.06412305303973
STARLINK-1446,45663,53.0254,2.26e-05,15.36538463,456.20019068252714,456.5091097051163,1 45663U 20035G   25335.64067054  .00030829  00000+0  85916-3 0  9997,2 45663  53.0254 103.3056 0000226 274.2528  85.8448 15.36538463304562
STARLINK-1448,45665,53.055,0.0001633,15.06401685,546.0754850845906,548.3373022369606,1 45665U 20035J   25335.63315774  .00000570  00000+0  57162-4 0  9996,2 45665  53.0550 146.8089 0001633  92.3108 267.8067 15.06401685303949
STARLINK-1451,45668,53.0504,0.0001175,15.06394213,546.4155637769945,548.0430248561588,1 45668U 20035M   25335.76957719 -.00001423  00000+0 -76665-4 0  9993,2 45668  53.0504 146.5165 0001175  90.3041 269.8083 15.06394213303979
STARLINK-1452,45669,53.0379,0.0009924,15.30079617,468.7729115973707,482.3761582518882,1 45669U 20035N   25335.62559880  .00086200  00000+0  28958-2 0  9990,2 45669  53.0379 123.3241 0009924 123.5528 236.6420 15.30079617304284
STARLINK-1453,45670,53.0548,0.0001272,15.12639833,527.2746600039809,529.0316202156255,1 45670U 20035P   25335.66286875  .00013223  00000+0  76339-3 0  9999,2 45670  53.0548 116.1504 0001272  85.7056 274.4081 15.12639833304273
STARLINK-1454,45671,53.053,0.0001372,15.06408681,546.2347978795196,548.1351062231615,1 45671U 20035Q   25335.72532512  .00004534  00000+0  32302-3 0  9996,2 45671  53.0530 146.4006 0001372  98.1815 261.9330 15.06408681303950
STARLINK-1456,45673,53.053,0.0001187,15.06398987,546.3926233967632,548.0367018814741,1 45673U 20035S   25335.74006958  .00006822  00000+0  47642-3 0  9995,2 45673  53.0530 146.3339 0001187 113.6513 246.4601 15.06398987303970
STARLINK-1457,45674,53.0522,0.000171,15.45329623,429.24545087089245,431.57397384651904,1 45674U 20035T   25335.91667823  .00174320  00000+0  35264-2 0  9994,2 45674  53.0522 139.5960 0001710 259.6905  98.7445 15.45329623  5858
STARLINK-1458,45675,53.0543,0.0001365,15.06405011,546.250892005768,548.1415079693652,1 45675U 20035U   25335.80271287  .00001934  00000+0  14868-3 0  9996,2 45675  53.0543 146.0494 0001365  89.2270 270.8876 15.06405011303940
STARLINK-1460,45676,53.0548,0.0001377,15.06413067,546.2178947729681,548.1251247365544,1 45676U 20035V   25335.77321176  .00002389  00000+0  17916-3 0  9998,2 45676  53.0548 146.1812 0001377 101.8535 258.2608 15.06413067303931
STARLINK-1392,45677,53.0552,0.0001437,15.06398422,546.2212210024672,548.2115675679843,1 45677U 20035W   25335.78428434 -.00000126  00000+0  10453-4 0  9993,2 45677  53.0552 146.1379 0001437  96.0721 264.0432 15.06398422303975
STARLINK-1394,45679,53.0538,0.0001195,15.06400058,546.3838010452046,548.0389593080681,1 45679U 20035Y   25335.71516830  .00000750  00000+0  69229-4 0  9993,2 45679  53.0538 136.4429 0001195  92.1271 267.9855 15.06400058304103
STARLINK-1402,45685,53.0522,0.0003176,15.30205821,473.0210699204308,477.37430811489503,1 45685U 20035AE  25335.79428132  .00063967  00000+0  21526-2 0  9990,2 45685  53.0522 124.0178 0003176 207.9649 152.1181 15.30205821304298
STARLINK-1404,45686,53.0549,0.0001363,15.06405323,546.2513209731451,548.1391665427946,1 45686U 20035AF  25335.74096829  .00000804  00000+0  72824-4 0  9990,2 45686  53.0549 136.3303 0001363  93.1243 266.9902 15.06405323304113
STARLINK-1413,45689,53.055,0.0001439,15.06398842,546.2185488755649,548.211665211973,1 45689U 20035AJ  25335.75940350  .00000163  00000+0  29822-4 0  9999,2 45689  53.0550 136.2437 0001439  93.7706 266.3448 15.06398842304025
STARLINK-1417,45693,53.0519,9.24e-05,15.069738,544.8137618547535,546.0932413794526,1 45693U 20035AN  25335.68664847  .00024826  00000+0  16539-2 0  9991,2 45693  53.0519 136.5442 0000924 133.9448 226.1618 15.06973800304095
STARLINK-1420,45695,53.0541,0.000119,15.06391487,546.4135295968008,548.0617687633057,1 45695U 20035AQ  25335.62392255  .00003159  00000+0  23091-3 0  9996,2 45695  53.0541 116.8426 0001190  88.3722 271.7404 15.06391487304374
STARLINK-1422,45696,53.054,0.0001411,15.0639904,546.2373331048966,548.1916672982534,1 45696U 20035AR  25335.76677683  .00000745  00000+0  68904-4 0  9994,2 45696  53.0540 136.2132 0001411  90.1691 269.9459 15.06399040304109
STARLINK-1351,45697,53.0547,0.0001235,15.06402866,546.3474946128845,548.0580535370809,1 45697U 20035AS  25335.67646437  .00000841  00000+0  75309-4 0  9992,2 45697  53.0547 116.6183 0001235  88.9697 271.1433 15.06402866304388
STARLINK-1398,45699,53.0486,0.0001821,15.56432755,396.75704974455857,399.2249155558393,1 45699U 20035AU  25335.57150235  .00046495  00000+0  64911-3 0  9990,2 45699  53.0486  66.1710 0001821 230.5762 129.5088 15.56432755305081
STARLINK-1400,45700,53.0546,0.0001226,15.06403829,546.3507763351572,548.0488689240665,1 45700U 20035AV  25335.71701080  .00000393  00000+0  45264-4 0  9997,2 45700  53.0546 116.4340 0001226  89.7791 270.3338 15.06403829304384
STARLINK-1403,45701,53.0539,0.0001166,15.06401178,546.4004523194099,548.015442761176,1 45701U 20035AW  25335.68015132  .00000811  00000+0  73355-4 0  9997,2 45701  53.0539 116.6004 0001166  87.7957 272.3165 15.06401178304375
STARLINK-1407,45703,53.0416,0.0009762,15.44525809,426.12293588858756,439.4205541223355,1 45703U 20035AY  25335.50881654  .00026203  00000+0  56216-3 0  9999,2 45703  53.0416  67.8696 0009762 153.7746 206.3756 15.44525809305054
STARLINK-1411,45706,53.0509,0.0001631,15.44749791,431.0026091668551,433.22411283461406,1 45706U 20035BB  25335.65284837  .00044382  00000+0  93796-3 0  9990,2 45706  53.0509  94.4207 0001631 336.0850  24.0079 15.44749791304682
STARLINK-1423,45710,53.0537,0.0001265,15.06398829,546.3390898403668,548.091203933529,1 45710U 20035BF  25335.63960894  .00000053  00000+0  22454-4 0  9998,2 45710  53.0537 116.7826 0001265  89.5548 270.5586 15.06398829304377
STARLINK-1433,45711,53.0551,0.0001324,15.06404926,546.2795463487209,548.1133746490623,1 45711U 20035BG  25335.62117522  .00000684  00000+0  64832-4 0  9996,2 45711  53.0551 116.8640 0001324  88.6159 271.4982 15.06404926304368
STARLINK-1434,45712,53.0465,0.0004876,15.17526392,509.9590187501426,516.6795669269186,1 45712U 20035BH  25335.64128081  .00027304  00000+0  13549-2 0  9996,2 45712  53.0465 110.7334 0004876 164.4223 195.6922 15.17526392304462
STARLINK-1465,45731,53.0552,0.0001551,15.06396066,546.149491676515,548.2977385393206,1 45731U 20038B   25335.18993219  .00000322  00000+0  40508-4 0  9990,2 45731  53.0552 318.8007 0001551  86.9288 273.1878 15.06396066301341
STARLINK-1471,45735,53.0503,0.0001734,15.42498549,437.5559757659448,439.92006802353717,1 45735U 20038F   25335.15156720  .00022056  00000+0  50903-3 0  9996,2 45735  53.0503 251.6027 0001734  90.2047 269.9157 15.42498549302298
STARLINK-1474,45738,53.0339,0.000352,15.73144416,347.5483759069966,352.2849256771533,1 45738U 20038J   25335.84752493  .00088747  00000+0  63132-3 0  9991,2 45738  53.0339 199.1651 0003520 107.8604 252.2797 15.73144416303084
STARLINK-1475,45739,53.0412,0.0001644,16.00409069,272.1915514445627,274.37853901303333,1 45739U 20038K   25335.81533878  .00578980  16003-3  10833-2 0  9999,2 45739  53.0412 161.8012 0001644 235.0080 125.0795 16.00409069303614
STARLINK-1480,45741,53.0556,0.0001508,15.06394174,546.1850685915197,548.273759101935,1 45741U 20038M   25335.37054453 -.00000381  00000+0 -66734-5 0  9997,2 45741  53.0556 317.9877 0001508  94.0239 266.0923 15.06394174301383
STARLINK-1500,45744,53.039,0.0001762,15.2919232,477.0173812862231,479.43356342148127,1 45744U 20038Q   25335.16718912  .00025218  00000+0  88765-3 0  9994,2 45744  53.0390 292.9159 0001762  11.5028 348.6011 15.29192320301715
STARLINK-1504,45746,53.0278,0.000326,15.43331063,434.0648297873786,438.50783379970835,1 45746U 20038S   25335.49066900  .00041049  00000+0  91108-3 0  9990,2 45746  53.0278 253.0106 0003260  57.7180 302.4140 15.43331063302298
STARLINK-1506,45747,53.0666,0.00027,15.22585012,496.19019188311995,499.9033311143294,1 45747U 20038T   25335.31979459  .00023215  00000+0  99761-3 0  9992,2 45747  53.0666 296.1980 0002700   5.9346 354.1681 15.22585012301683
STARLINK-1464,45751,53.0559,0.0001493,15.06393922,546.196228874619,548.2641435164169,1 45751U 20038X   25335.63777626  .00000528  00000+0  54356-4 0  9998,2 45751  53.0559 296.7899 0001493  89.4942 270.6218 15.06393922301701
STARLINK-1477,45754,53.0535,0.0005414,15.08469045,537.1315279102819,544.6234367917705,1 45754U 20038AA  25335.62775860  .00027919  00000+0  17827-2 0  9991,2 45754  53.0535 296.5719 0005414  66.2733 293.8825 15.08469045301708
STARLINK-1478,45755,53.0549,0.0001498,15.06397941,546.1804503246167,548.2552866432143,1 45755U 20038AB  25335.60459426 -.00000891  00000+0 -40895-4 0  9992,2 45755  53.0549 296.9376 0001498 104.3593 255.7562 15.06397941301688
STARLINK-1484,45756,53.0136,0.0003006,15.67441005,364.2002209375951,368.2549329212461,1 45756U 20038AC  25335.82742558  .00082929  00000+0  74878-3 0  9995,2 45756  53.0136 188.5527 0003006 130.0438 230.0841 15.67441005303222
